CCSDS_OMM_VERS = 2.0
CREATION_DATE  = 
ORIGINATOR     = 

OBJECT_NAME    = AQUA
OBJECT_ID      = 2002-022A
CENTER_NAME    = EARTH
REF_FRAME      = TEME
TIME_SYSTEM    = UTC
MEAN_ELEMENT_THEORY = SGP/SGP4

EPOCH          = 2026-05-23T11:53:58.763328
MEAN_MOTION    = 14.62113545
ECCENTRICITY   = .0001949
INCLINATION    = 98.4264
RA_OF_ASC_NODE = 112.2885
ARG_OF_PERICENTER = 66.5965
MEAN_ANOMALY   = 43.2816

EPHEMERIS_TYPE = 0
CLASSIFICATION_TYPE = U
NORAD_CAT_ID   = 27424
ELEMENT_SET_NO = 999
REV_AT_EPOCH   = 27966
BSTAR          = .12169E-3
MEAN_MOTION_DOT = .562E-5
MEAN_MOTION_DDOT = 0

CCSDS_OMM_VERS = 2.0
CREATION_DATE  = 
ORIGINATOR     = 

OBJECT_NAME    = CZ-4B R/B
OBJECT_ID      = 2002-024C
CENTER_NAME    = EARTH
REF_FRAME      = TEME
TIME_SYSTEM    = UTC
MEAN_ELEMENT_THEORY = SGP/SGP4

EPOCH          = 2026-05-23T09:40:43.474944
MEAN_MOTION    = 14.14559828
ECCENTRICITY   = .0050399
INCLINATION    = 98.8715
RA_OF_ASC_NODE = 196.3821
ARG_OF_PERICENTER = 169.5727
MEAN_ANOMALY   = 201.3134

EPHEMERIS_TYPE = 0
CLASSIFICATION_TYPE = U
NORAD_CAT_ID   = 27432
ELEMENT_SET_NO = 999
REV_AT_EPOCH   = 23980
BSTAR          = .37803E-4
MEAN_MOTION_DOT = .29E-6
MEAN_MOTION_DDOT = 0

CCSDS_OMM_VERS = 2.0
CREATION_DATE  = 
ORIGINATOR     = 

OBJECT_NAME    = MIDORI II (ADEOS-II)
OBJECT_ID      = 2002-056A
CENTER_NAME    = EARTH
REF_FRAME      = TEME
TIME_SYSTEM    = UTC
MEAN_ELEMENT_THEORY = SGP/SGP4

EPOCH          = 2026-05-23T11:56:13.423776
MEAN_MOTION    = 14.29333517
ECCENTRICITY   = .000196
INCLINATION    = 98.7865
RA_OF_ASC_NODE = 102.5499
ARG_OF_PERICENTER = 110.2823
MEAN_ANOMALY   = 249.8569

EPHEMERIS_TYPE = 0
CLASSIFICATION_TYPE = U
NORAD_CAT_ID   = 27597
ELEMENT_SET_NO = 999
REV_AT_EPOCH   = 22098
BSTAR          = .91004E-4
MEAN_MOTION_DOT = .186E-5
MEAN_MOTION_DDOT = 0

CCSDS_OMM_VERS = 2.0
CREATION_DATE  = 
ORIGINATOR     = 

OBJECT_NAME    = H-2A R/B
OBJECT_ID      = 2002-056E
CENTER_NAME    = EARTH
REF_FRAME      = TEME
TIME_SYSTEM    = UTC
MEAN_ELEMENT_THEORY = SGP/SGP4

EPOCH          = 2026-05-23T10:58:25.275072
MEAN_MOTION    = 14.33808945
ECCENTRICITY   = .0069051
INCLINATION    = 98.3301
RA_OF_ASC_NODE = 101.0350
ARG_OF_PERICENTER = 299.5078
MEAN_ANOMALY   = 170.4221

EPHEMERIS_TYPE = 0
CLASSIFICATION_TYPE = U
NORAD_CAT_ID   = 27601
ELEMENT_SET_NO = 999
REV_AT_EPOCH   = 22482
BSTAR          = .75409E-4
MEAN_MOTION_DOT = .173E-5
MEAN_MOTION_DDOT = 0

CCSDS_OMM_VERS = 2.0
CREATION_DATE  = 
ORIGINATOR     = 

OBJECT_NAME    = CZ-4B R/B
OBJECT_ID      = 2003-049C
CENTER_NAME    = EARTH
REF_FRAME      = TEME
TIME_SYSTEM    = UTC
MEAN_ELEMENT_THEORY = SGP/SGP4

EPOCH          = 2026-05-23T11:25:43.856256
MEAN_MOTION    = 14.55079784
ECCENTRICITY   = .0048221
INCLINATION    = 98.6897
RA_OF_ASC_NODE = 141.3403
ARG_OF_PERICENTER = 4.9987
MEAN_ANOMALY   = 355.1681

EPHEMERIS_TYPE = 0
CLASSIFICATION_TYPE = U
NORAD_CAT_ID   = 28059
ELEMENT_SET_NO = 999
REV_AT_EPOCH   = 19747
BSTAR          = .67168E-4
MEAN_MOTION_DOT = .242E-5
MEAN_MOTION_DDOT = 0

CCSDS_OMM_VERS = 2.0
CREATION_DATE  = 
ORIGINATOR     = 

OBJECT_NAME    = CZ-2C R/B
OBJECT_ID      = 2004-012C
CENTER_NAME    = EARTH
REF_FRAME      = TEME
TIME_SYSTEM    = UTC
MEAN_ELEMENT_THEORY = SGP/SGP4

EPOCH          = 2026-05-23T11:17:01.449024
MEAN_MOTION    = 15.74221938
ECCENTRICITY   = .0009752
INCLINATION    = 97.7097
RA_OF_ASC_NODE = 216.3520
ARG_OF_PERICENTER = 37.6978
MEAN_ANOMALY   = 322.4967

EPHEMERIS_TYPE = 0
CLASSIFICATION_TYPE = U
NORAD_CAT_ID   = 28222
ELEMENT_SET_NO = 999
REV_AT_EPOCH   = 21600
BSTAR          = .50511E-3
MEAN_MOTION_DOT = .72956E-3
MEAN_MOTION_DDOT = 0

CCSDS_OMM_VERS = 2.0
CREATION_DATE  = 
ORIGINATOR     = 

OBJECT_NAME    = SL-16 R/B
OBJECT_ID      = 2004-021B
CENTER_NAME    = EARTH
REF_FRAME      = TEME
TIME_SYSTEM    = UTC
MEAN_ELEMENT_THEORY = SGP/SGP4

EPOCH          = 2026-05-23T06:29:49.267104
MEAN_MOTION    = 14.14609896
ECCENTRICITY   = .0007113
INCLINATION    = 71.0012
RA_OF_ASC_NODE = 75.9779
ARG_OF_PERICENTER = 281.0882
MEAN_ANOMALY   = 78.9440

EPHEMERIS_TYPE = 0
CLASSIFICATION_TYPE = U
NORAD_CAT_ID   = 28353
ELEMENT_SET_NO = 999
REV_AT_EPOCH   = 13338
BSTAR          = .18022E-3
MEAN_MOTION_DOT = .299E-5
MEAN_MOTION_DDOT = 0

CCSDS_OMM_VERS = 2.0
CREATION_DATE  = 
ORIGINATOR     = 

OBJECT_NAME    = CZ-4B R/B
OBJECT_ID      = 2004-035C
CENTER_NAME    = EARTH
REF_FRAME      = TEME
TIME_SYSTEM    = UTC
MEAN_ELEMENT_THEORY = SGP/SGP4

EPOCH          = 2026-05-23T08:27:18.569664
MEAN_MOTION    = 15.30193126
ECCENTRICITY   = .003281
INCLINATION    = 97.3388
RA_OF_ASC_NODE = 176.7116
ARG_OF_PERICENTER = 65.3465
MEAN_ANOMALY   = 295.1187

EPHEMERIS_TYPE = 0
CLASSIFICATION_TYPE = U
NORAD_CAT_ID   = 28415
ELEMENT_SET_NO = 999
REV_AT_EPOCH   = 19132
BSTAR          = .23677E-3
MEAN_MOTION_DOT = .6953E-4
MEAN_MOTION_DDOT = 0

CCSDS_OMM_VERS = 2.0
CREATION_DATE  = 
ORIGINATOR     = 

OBJECT_NAME    = CZ-2C R/B
OBJECT_ID      = 2004-046B
CENTER_NAME    = EARTH
REF_FRAME      = TEME
TIME_SYSTEM    = UTC
MEAN_ELEMENT_THEORY = SGP/SGP4

EPOCH          = 2026-05-23T08:53:10.336128
MEAN_MOTION    = 14.27019385
ECCENTRICITY   = .0138202
INCLINATION    = 98.1960
RA_OF_ASC_NODE = 53.6990
ARG_OF_PERICENTER = 294.2919
MEAN_ANOMALY   = 64.3880

EPHEMERIS_TYPE = 0
CLASSIFICATION_TYPE = U
NORAD_CAT_ID   = 28480
ELEMENT_SET_NO = 999
REV_AT_EPOCH   = 11915
BSTAR          = .41799E-4
MEAN_MOTION_DOT = .7E-6
MEAN_MOTION_DDOT = 0

CCSDS_OMM_VERS = 2.0
CREATION_DATE  = 
ORIGINATOR     = 

OBJECT_NAME    = ARIANE 5 R/B
OBJECT_ID      = 2004-049H
CENTER_NAME    = EARTH
REF_FRAME      = TEME
TIME_SYSTEM    = UTC
MEAN_ELEMENT_THEORY = SGP/SGP4

EPOCH          = 2026-05-23T11:25:30.085824
MEAN_MOTION    = 14.85403529
ECCENTRICITY   = .008522
INCLINATION    = 98.2708
RA_OF_ASC_NODE = 314.7779
ARG_OF_PERICENTER = 108.4810
MEAN_ANOMALY   = 252.5689

EPHEMERIS_TYPE = 0
CLASSIFICATION_TYPE = U
NORAD_CAT_ID   = 28499
ELEMENT_SET_NO = 999
REV_AT_EPOCH   = 15689
BSTAR          = .72845E-4
MEAN_MOTION_DOT = .605E-5
MEAN_MOTION_DDOT = 0

CCSDS_OMM_VERS = 2.0
CREATION_DATE  = 
ORIGINATOR     = 

OBJECT_NAME    = CZ-2D R/B
OBJECT_ID      = 2005-024B
CENTER_NAME    = EARTH
REF_FRAME      = TEME
TIME_SYSTEM    = UTC
MEAN_ELEMENT_THEORY = SGP/SGP4

EPOCH          = 2026-05-23T12:35:06.016416
MEAN_MOTION    = 15.66750892
ECCENTRICITY   = .0006646
INCLINATION    = 97.3514
RA_OF_ASC_NODE = 161.7729
ARG_OF_PERICENTER = 105.2922
MEAN_ANOMALY   = 254.9073

EPHEMERIS_TYPE = 0
CLASSIFICATION_TYPE = U
NORAD_CAT_ID   = 28738
ELEMENT_SET_NO = 999
REV_AT_EPOCH   = 15147
BSTAR          = .4125E-3
MEAN_MOTION_DOT = .43444E-3
MEAN_MOTION_DDOT = 0

CCSDS_OMM_VERS = 2.0
CREATION_DATE  = 
ORIGINATOR     = 

OBJECT_NAME    = ALOS (DAICHI)
OBJECT_ID      = 2006-002A
CENTER_NAME    = EARTH
REF_FRAME      = TEME
TIME_SYSTEM    = UTC
MEAN_ELEMENT_THEORY = SGP/SGP4

EPOCH          = 2026-05-23T10:48:23.524992
MEAN_MOTION    = 14.69990945
ECCENTRICITY   = .0002166
INCLINATION    = 98.1311
RA_OF_ASC_NODE = 99.0982
ARG_OF_PERICENTER = 76.4949
MEAN_ANOMALY   = 283.6498

EPHEMERIS_TYPE = 0
CLASSIFICATION_TYPE = U
NORAD_CAT_ID   = 28931
ELEMENT_SET_NO = 999
REV_AT_EPOCH   = 8446
BSTAR          = .13366E-3
MEAN_MOTION_DOT = .752E-5
MEAN_MOTION_DDOT = 0

