AQUA                    
1 27424U 02022A   26143.49581902  .00000562  00000+0  12169-3 0  9993
2 27424  98.4264 112.2885 0001949  66.5965  43.2816 14.62113545279667
CZ-4B R/B               
1 27432U 02024C   26143.40328096  .00000029  00000+0  37803-4 0  9999
2 27432  98.8715 196.3821 0050399 169.5727 201.3134 14.14559828239804
MIDORI II (ADEOS-II)    
1 27597U 02056A   26143.49737759  .00000186  00000+0  91004-4 0  9992
2 27597  98.7865 102.5499 0001960 110.2823 249.8569 14.29333517220980
H-2A R/B                
1 27601U 02056E   26143.45723698  .00000173  00000+0  75409-4 0  9998
2 27601  98.3301 101.0350 0069051 299.5078 170.4221 14.33808945224823
CZ-4B R/B               
1 28059U 03049C   26143.47620204  .00000242  00000+0  67168-4 0  9990
2 28059  98.6897 141.3403 0048221   4.9987 355.1681 14.55079784197470
CZ-2C R/B               
1 28222U 04012C   26143.47015566  .00072956  00000+0  50511-3 0  9996
2 28222  97.7097 216.3520 0009752  37.6978 322.4967 15.74221938216003
SL-16 R/B               
1 28353U 04021B   26143.27070912  .00000299  00000+0  18022-3 0  9997
2 28353  71.0012  75.9779 0007112 281.0882  78.9440 14.14609896133386
CZ-4B R/B               
1 28415U 04035C   26143.35229826  .00006953  00000+0  23677-3 0  9995
2 28415  97.3388 176.7116 0032810  65.3465 295.1187 15.30193126191322
CZ-2C R/B               
1 28480U 04046B   26143.37025852  .00000070  00000+0  41799-4 0  9994
2 28480  98.1960  53.6990 0138202 294.2919  64.3880 14.27019385119157
ARIANE 5 R/B            
1 28499U 04049H   26143.47604266  .00000605  00000+0  72845-4 0  9990
2 28499  98.2708 314.7779 0085220 108.4810 252.5689 14.85403529156892
CZ-2D R/B               
1 28738U 05024B   26143.52437519  .00043444  00000+0  41250-3 0  9994
2 28738  97.3514 161.7729 0006646 105.2922 254.9073 15.66750892151472
ALOS (DAICHI)           
1 28931U 06002A   26143.45027228  .00000752  00000+0  13366-3 0  9992
2 28931  98.1311  99.0982 0002166  76.4949 283.6498 14.69990945 84467
